stk.v.10.0
# WrittenBy    GMAT R2017a-Beta
BEGIN Ephemeris
NumberOfEphemerisPoints 2610
ScenarioEpoch           01 Jan 2000 11:59:28.000
CentralBody             Earth
CoordinateSystem        J2000
DistanceUnit            Kilometers

EphemerisTimePosVel

7.231006725918269e+004   6.571093492129749e+003  -2.606270169907606e+003   9.734064545451811e+002   2.717873847295398e+000   6.863745816551251e+000   1.342530262710997e+000
7.240826351795113e+004   6.802830880733662e+003  -1.919705431455362e+003   1.099855084205733e+003   1.998755986078636e+000   7.107173947192547e+000   1.230765422620924e+000
7.250683933768887e+004   6.963605785267214e+003  -1.210207979082989e+003   1.215144448527035e+003   1.261265822344847e+000   7.274910908079990e+000   1.106430301057790e+000
7.260580317395506e+004   7.051441738124249e+003  -4.851309702524648e+002   1.318016052671966e+003   5.132402991082086e-001   7.365455206562264e+000   9.708830710502809e-001
7.270516229543136e+004   7.065107494325497e+003   2.479694401016190e+002   1.407333442295328e+003  -2.374498318992896e-001   7.378122298007315e+000   8.255856294146030e-001
7.280491686839378e+004   7.004137671916368e+003   9.813661010011392e+002   1.482090077229615e+003  -9.829372441553859e-001   7.313035218631852e+000   6.720951182899677e-001
7.290506464104401e+004   6.868853941635836e+003   1.707274492809882e+003   1.541426952738458e+003  -1.715472448112767e+000   7.171115357102876e+000   5.120403675106584e-001
7.300559843082447e+004   6.660374860076153e+003   2.417916741023293e+003   1.584642128191957e+003  -2.427480397683490e+000   6.954062524664602e+000   3.471083709815268e-001
7.310650705512380e+004   6.380617247684967e+003   3.105613338385746e+003   1.611201868172577e+003  -3.111638970910881e+000   6.664328547291942e+000   1.790257180698643e-001
7.320777526746970e+004   6.032288408070048e+003   3.762868856305841e+003   1.620749272440792e+003  -3.760945448982718e+000   6.305084955283452e+000   9.541674417946807e-003
7.330938351015793e+004   5.618870230807568e+003   4.382457082631354e+003   1.613111240690774e+003  -4.368777503943598e+000   5.880186899227963e+000  -1.595881073390819e-001
7.341130862178979e+004   5.144590079864951e+003   4.957511469293861e+003   1.588303469947490e+003  -4.928955468147239e+000   5.394128929227471e+000  -3.266190861448703e-001
7.351352307378547e+004   4.614387878394133e+003   5.481604831612842e+003   1.546533427325936e+003  -5.435791283703559e+000   4.852002962735376e+000  -4.898324621477505e-001
7.361599755787756e+004   4.033856451709960e+003   5.948843099128329e+003   1.488199742439709e+003  -5.884149542247815e+000   4.259435340491017e+000  -6.475546370051034e-001
7.371869901468745e+004   3.409194790895032e+003   6.353929293933321e+003   1.413890598607627e+003  -6.269479443707278e+000   3.622543659086423e+000  -7.981686412336406e-001
7.382159100619610e+004   2.747142659705364e+003   6.692236391685107e+003   1.324379515127348e+003  -6.587856643344352e+000   2.947880833252428e+000  -9.401289984702272e-001
7.392463479418075e+004   2.054901250199777e+003   6.959874508742984e+003   1.220617721336731e+003  -6.836021853309485e+000   2.242370843117073e+000  -1.071976929546401e+000
7.402779310452752e+004   1.340026073252564e+003   7.153750517174183e+003   1.103720197933164e+003  -7.011415234212291e+000   1.513221334258850e+000  -1.192357456859585e+000
7.413102259483421e+004   6.103917646506699e+002   7.271593956722861e+003   9.749617935806236e+002  -7.112184042910844e+000   7.679137264728777e-001  -1.300022119307424e+000
7.423428282608511e+004  -1.259609821531739e+002   7.312007779359669e+003   8.357532173848301e+002  -7.137217773141625e+000   1.407619969225653e-002  -1.393850884670454e+000
7.433753162735375e+004  -8.608883506196607e+002   7.274479401301191e+003   6.876299640079634e+002  -7.086152336425701e+000  -7.405496200129182e-001  -1.472856937066081e+000
7.444072630153969e+004  -1.586248572727094e+003   7.159393829194634e+003   5.322332200221780e+002  -6.959381772610494e+000  -1.488184560278345e+000  -1.536197958337327e+000
7.454382492760196e+004  -2.294008749406540e+003   6.968030839910442e+003   3.712885623486907e+002  -6.758060678836570e+000  -2.221090530655964e+000  -1.583185907737541e+000
7.464678916179109e+004  -2.976359477910909e+003   6.702541556970256e+003   2.065806979613166e+002  -6.484092355186319e+000  -2.931659877896128e+000  -1.613295262829601e+000
7.474957940841559e+004  -3.625774654472063e+003   6.365930814125829e+003   3.993960337967413e+001  -6.140129182934163e+000  -3.612451538776200e+000  -1.626167378816253e+000
7.485215926025994e+004  -4.235130421302739e+003   5.962010029903457e+003  -1.267883771139433e+002  -5.729547630705969e+000  -4.256293358719819e+000  -1.621617675353211e+000
7.495449363465887e+004  -4.797776435682352e+003   5.495353673312778e+003  -2.917596874107640e+002  -5.256431398715597e+000  -4.856340742513850e+000  -1.599639264114606e+000
7.505655297911726e+004  -5.307634679432148e+003   4.971221099811832e+003  -4.531621779035198e+002  -4.725522257980621e+000  -5.406171300548047e+000  -1.560404485071352e+000
7.515830715587363e+004  -5.759234574620822e+003   4.395518097622759e+003  -6.092265912083175e+002  -4.142212665305856e+000  -5.899818754340974e+000  -1.504267464572268e+000
7.525973205019254e+004  -6.147805832950036e+003   3.774689324057704e+003  -7.582574707934112e+002  -3.512468421929415e+000  -6.331876301941050e+000  -1.431761146648873e+000
7.536080662328750e+004  -6.469311131137254e+003   3.115651109275279e+003  -8.986475454519176e+002  -2.842790846832761e+000  -6.697542897133437e+000  -1.343595332787175e+000
7.546151346332626e+004  -6.720487657501654e+003   2.425703190828516e+003  -1.028896323549242e+003  -2.140154839945413e+000  -6.992685928598096e+000  -1.240651923220114e+000
7.556183985129464e+004  -6.898877349895268e+003   1.712432320618876e+003  -1.147627424647172e+003  -1.411934621983777e+000  -7.213898285227485e+000  -1.123977072995726e+000
7.566177786535118e+004  -7.002841608191338e+003   9.836200391170983e+002  -1.253602376460047e+003  -6.658285338126779e-001  -7.358543808095655e+000  -9.947717859790375e-001
7.576132217586273e+004  -7.031565399788409e+003   2.471679220270745e+002  -1.345730276353125e+003   9.020419103154570e-002  -7.424794347286807e+000  -8.543838564749200e-001
7.586047193479026e+004  -6.985057901187322e+003  -4.890059493829804e+002  -1.423080148288464e+003   8.480425847607334e-001  -7.411666894777292e+000  -7.042927651732547e-001
7.595923141816165e+004  -6.864136907403273e+003  -1.217060084859337e+003  -1.484888886440916e+003   1.599499400248585e+000  -7.319044051700667e+000  -5.460933248714192e-001
7.605760711105540e+004  -6.670409444977029e+003  -1.929292944730609e+003  -1.530564954076937e+003   2.336392683792828e+000  -7.147688483726441e+000  -3.814832856352355e-001
7.615561097748578e+004  -6.406237672228052e+003  -2.618247875009751e+003  -1.559694072636298e+003   3.050666741087289e+000  -6.899241870198467e+000  -2.122394183569906e-001
7.625325875018025e+004  -6.074701325831345e+003  -3.276775847600922e+003  -1.572039267778202e+003   3.734475500471557e+000  -6.576214819559355e+000  -4.019989166294086e-002
7.635056928527774e+004  -5.679555735536049e+003  -3.898101157742285e+003  -1.567540383228591e+003   4.380273894949505e+000  -6.181967821458537e+000   1.327559912048789e-001
7.644756484364625e+004  -5.225181357089336e+003  -4.475887687847997e+003  -1.546311986809890e+003   4.980913859334215e+000  -5.720677799548282e+000   3.047306661550848e-001
7.654427085136995e+004  -4.716529575593687e+003  -5.004295040255635e+003  -1.508639343300261e+003   5.529732625813551e+000  -5.197294064040928e+000   4.738309285024854e-001
7.664071501462022e+004  -4.159068629024908e+003  -5.478025140447205e+003  -1.454973279380459e+003   6.020632605938749e+000  -4.617487388882486e+000   6.381897190825651e-001
7.673692867406644e+004  -3.558713737569140e+003  -5.892373555824819e+003  -1.385922493274727e+003   6.448166241185873e+000  -3.987575486779488e+000   7.959916608213576e-001
7.683294457696611e+004  -2.921775280891379e+003  -6.243256213962865e+003  -1.302246501869114e+003   6.807594027448197e+000  -3.314460118576813e+000   9.454919677973525e-001
7.692879712516442e+004  -2.254892229978703e+003  -6.527243797461169e+003  -1.204846586729703e+003   7.094947897300349e+000  -2.605542331776378e+000   1.085038968768558e+000
7.702452315932605e+004  -1.564959049817911e+003  -6.741588916056427e+003  -1.094754601086932e+003   7.307083086677272e+000  -1.868624566357981e+000   1.213095903630553e+000
7.712016149625415e+004  -8.590600691880289e+002  -6.884240975792132e+003  -9.731217867700777e+002   7.441712232770461e+000  -1.111815497875142e+000   1.328258898954544e+000
7.721575017669238e+004  -1.444219314511511e+002  -6.953854895011900e+003  -8.412104047891808e+002   7.497427686391746e+000  -3.434504737530693e-001   1.429270786641319e+000
7.731132925366983e+004   5.716746494966106e+002  -6.949803147349546e+003  -7.003777719024434e+002   7.473720060498763e+000   4.280343172175045e-001   1.515039590058382e+000
7.740693835022394e+004   1.281944160492679e+003  -6.872174406641642e+003  -5.520663588834511e+002   7.370976793677865e+000   1.194187141343566e+000   1.584648313547975e+000
7.750261578527279e+004   1.979156706283215e+003  -6.721773686774935e+003  -3.977918746547389e+002   7.190475368133726e+000   1.946637672095168e+000   1.637365028020603e+000
7.759840097314445e+004   2.656221761508644e+003  -6.500110996390000e+003  -2.391254276418264e+002   6.934357142874838e+000   2.677217507953504e+000   1.672651888821570e+000
7.769433166257804e+004   3.306232622682254e+003  -6.209390543408163e+003  -7.768345289841852e+001   6.605597017361874e+000   3.378035254635681e+000   1.690167988877265e+000
7.779044371544151e+004   3.922529418658716e+003  -5.852495264767381e+003   8.488654659061214e+001   6.207962538218293e+000   4.041567424234867e+000   1.689771972489750e+000
END Ephemeris


